[{"OBJECT_NAME":"STARLINK-3195","OBJECT_ID":"2021-115AQ","EPOCH":"2026-03-09T12:15:02.584512","MEAN_MOTION":15.08841283,"ECCENTRICITY":0.00014051,"INCLINATION":53.2171,"RA_OF_ASC_NODE":139.9291,"ARG_OF_PERICENTER":88.9387,"MEAN_ANOMALY":271.1766,"EPHEMERIS_TYPE":0,"CLASSIFICATION_TYPE":"U","NORAD_CAT_ID":49762,"ELEMENT_SET_NO":999,"REV_AT_EPOCH":23565,"BSTAR":6.4667231e-5,"MEAN_MOTION_DOT":7.41e-6,"MEAN_MOTION_DDOT":0},{"OBJECT_NAME":"COSMOS 397 DEB","OBJECT_ID":"1971-015U","EPOCH":"2026-03-09T13:29:42.554976","MEAN_MOTION":14.46444927,"ECCENTRICITY":0.0335899,"INCLINATION":65.6875,"RA_OF_ASC_NODE":135.6369,"ARG_OF_PERICENTER":212.43,"MEAN_ANOMALY":145.5762,"EPHEMERIS_TYPE":0,"CLASSIFICATION_TYPE":"U","NORAD_CAT_ID":5094,"ELEMENT_SET_NO":999,"REV_AT_EPOCH":67470,"BSTAR":0.0028972,"MEAN_MOTION_DOT":0.00021188,"MEAN_MOTION_DDOT":0}]
